{
  "type": "FeatureCollection",
  "features": [
    {
      "type": "Feature",
      "properties": {
        "norad_id": 54741,
        "name": "GALAXY 35 (G-35)",
        "group": "intelsat",
        "lat": -0.001248885870102981,
        "lon": 121.83562809934539,
        "alt_km": 35794.952042825724,
        "timestamp": "2025-12-11T08:58:26.782691+00:00",
        "meta_object_name": "GALAXY 35 (G-35)",
        "meta_object_id": "2022-170A",
        "meta_epoch": "2025-12-11T02:47:46.349952",
        "meta_mean_motion": 1.00271264,
        "meta_eccentricity": 0.0002547,
        "meta_inclination": 0.0166,
        "meta_ra_of_asc_node": 263.584,
        "meta_arg_of_pericenter": 2.2053,
        "meta_mean_anomaly": 123.1459,
        "meta_ephemeris_type": 0,
        "meta_classification_type": "U",
        "meta_norad_cat_id": 54741,
        "meta_element_set_no": 999,
        "meta_rev_at_epoch": 1100,
        "meta_bstar": 0,
        "meta_mean_motion_dot": -1.57e-06,
        "meta_mean_motion_ddot": 0,
        "tle_line1": "1 54741U 22170A   25345.11650868 -.00000157  00000+0  00000+0 0  9999",
        "tle_line2": "2 54741   0.0166 263.5840 0002547   2.2053 123.1459  1.00271264 11004"
      },
      "geometry": {
        "type": "Point",
        "coordinates": [
          121.83562809934539,
          -0.001248885870102981
        ]
      }
    },
    {
      "type": "Feature",
      "properties": {
        "norad_id": 54742,
        "name": "GALAXY 36 (G-36)",
        "group": "intelsat",
        "lat": 0.02216494292043152,
        "lon": 125.94187790531092,
        "alt_km": 35787.45330270039,
        "timestamp": "2025-12-11T08:58:26.782703+00:00",
        "meta_object_name": "GALAXY 36 (G-36)",
        "meta_object_id": "2022-170B",
        "meta_epoch": "2025-12-11T02:48:53.741952",
        "meta_mean_motion": 1.00272471,
        "meta_eccentricity": 3.89e-05,
        "meta_inclination": 0.0136,
        "meta_ra_of_asc_node": 33.2733,
        "meta_arg_of_pericenter": 253.3407,
        "meta_mean_anomaly": 106.6921,
        "meta_ephemeris_type": 0,
        "meta_classification_type": "U",
        "meta_norad_cat_id": 54742,
        "meta_element_set_no": 999,
        "meta_rev_at_epoch": 1088,
        "meta_bstar": 0,
        "meta_mean_motion_dot": -1.8e-06,
        "meta_mean_motion_ddot": 0,
        "tle_line1": "1 54742U 22170B   25345.11728868 -.00000180  00000+0  00000+0 0  9992",
        "tle_line2": "2 54742   0.0136  33.2733 0000389 253.3407 106.6921  1.00272471 10885"
      },
      "geometry": {
        "type": "Point",
        "coordinates": [
          125.94187790531092,
          0.02216494292043152
        ]
      }
    },
    {
      "type": "Feature",
      "properties": {
        "norad_id": 57493,
        "name": "GALAXY 37 (G-37)",
        "group": "intelsat",
        "lat": 0.022512695265844655,
        "lon": 87.9490338159464,
        "alt_km": 35795.50418537138,
        "timestamp": "2025-12-11T08:58:26.782714+00:00",
        "meta_object_name": "GALAXY 37 (G-37)",
        "meta_object_id": "2023-112A",
        "meta_epoch": "2025-12-10T23:12:35.516736",
        "meta_mean_motion": 1.00272279,
        "meta_eccentricity": 0.0002268,
        "meta_inclination": 0.0079,
        "meta_ra_of_asc_node": 18.4049,
        "meta_arg_of_pericenter": 247.2478,
        "meta_mean_anomaly": 35.4359,
        "meta_ephemeris_type": 0,
        "meta_classification_type": "U",
        "meta_norad_cat_id": 57493,
        "meta_element_set_no": 999,
        "meta_rev_at_epoch": 865,
        "meta_bstar": 0,
        "meta_mean_motion_dot": 5.3e-07,
        "meta_mean_motion_ddot": 0,
        "tle_line1": "1 57493U 23112A   25344.96707774  .00000053  00000+0  00000+0 0  9998",
        "tle_line2": "2 57493   0.0079  18.4049 0002268 247.2478  35.4359  1.00272279  8652"
      },
      "geometry": {
        "type": "Point",
        "coordinates": [
          87.9490338159464,
          0.022512695265844655
        ]
      }
    }
  ]
}